LEMUR-2-ALISIA          
1 62706U 25009DB  26163.20820756  .00008103  00000+0  61123-3 0  9992
2 62706  97.6968 245.4119 0001411 190.1719 169.9478 15.02701559 99411
ICEYE-X44               
1 62707U 25009DC  26163.20269781  .00002663  00000+0  24260-3 0  9994
2 62707  97.7059 242.4074 0002315 121.8397 238.3049 14.95989420 99194
CENTAURI-7              
1 62708U 25009DD  26163.18426320  .00003684  00000+0  31875-3 0  9990
2 62708  97.7107 243.5211 0001474 114.7640 245.3736 14.97776126 76714
CONNECTA IOT-6          
1 62709U 25009DE  26163.17246636  .00001289  00000+0  12553-3 0  9991
2 62709  97.7028 241.6364 0002703 123.3006 236.8474 14.94202879 76612
FIREFLY-3               
1 62710U 25009DF  26163.22378824  .00001450  00000+0  14584-3 0  9990
2 62710  97.7060 241.4908 0003932 150.4973 209.6469 14.92722048 76593
LEMUR-2-ROUNDTRIPPER    
1 62711U 25009DG  26163.16966387  .00009313  00000+0  68317-3 0  9990
2 62711  97.7255 245.8557 0004813 146.9647 213.1880 15.03708826 76874
LEMUR-2-MYNAMEISJEFF    
1 62712U 25009DH  26163.23464559  .00008995  00000+0  65985-3 0  9996
2 62712  97.7304 246.2986 0003017 170.0646 190.0640 15.03722784 76880
SATGUS                  
1 62713U 25009DJ  26163.19777077  .00006542  00000+0  51474-3 0  9998
2 62713  97.6934 244.6229 0008925 136.1717 224.0217 15.01139520 76815
CENTAURI-8              
1 62714U 25009DK  26163.21216925  .00003214  00000+0  27909-3 0  9991
2 62714  97.7044 243.3889 0002327 142.9718 217.1665 14.97729535 76739
CONNECTA IOT-7          
1 62715U 25009DL  26162.74579163  .00000712  00000+0  71776-4 0  9997
2 62715  97.7081 241.6071 0001479 148.0274 212.1036 14.94167596 76531
PRSC-EO1                
1 62725U 25012A   26163.31270622  .00006679  00000+0  33444-3 0  9991
2 62725  97.4232 235.8675 0004175 273.5323  86.5434 15.17709019 77452
2025-012B               
1 62726U 25012B   26163.26637802  .00004922  00000+0  22387-3 0  9996
2 62726  97.4238 236.4030 0007418 297.2437  62.8042 15.21168000 77505
2025-012C               
1 62727U 25012C   26163.30766022  .00011183  00000+0  41922-3 0  9992
2 62727  97.4266 238.8420 0005962 281.8446  78.2124 15.27404131 77648
2025-013A               
1 62729U 25013A   26163.28321334  .00034387  00000+0  10131-2 0  9993
2 62729  97.6382 341.7653 0008150 311.0959  48.9579 15.34928986 77207
2025-013B               
1 62730U 25013B   26163.24419808  .00003075  00000+0  18621-3 0  9998
2 62730  97.6557 332.6193 0014028  32.5898 327.6195 15.11288288 76589
2025-013C               
1 62731U 25013C   26163.22992068  .00003391  00000+0  20505-3 0  9996
2 62731  97.6507 332.3116 0014885  35.3458 324.8756 15.11256027 76589
2025-013D               
1 62732U 25013D   26163.25201105  .00003131  00000+0  18967-3 0  9996
2 62732  97.6543 332.6591 0009703  53.9945 306.2183 15.11307115 76538
2025-013E               
1 62733U 25013E   26163.25267119  .00003034  00000+0  18521-3 0  9992
2 62733  97.6558 332.6044 0009454  43.1117 317.0851 15.11050961 76472
STARLINK-32806          
1 62735U 25014A   26161.78914973  .00024103  00000+0  88133-3 0  9994
2 62735  43.0015 348.7992 0000967 110.6545 249.4411 15.27625433 77494
STARLINK-32329          
1 62736U 25014B   26163.25003472 -.00011551  00000+0 -41065-3 0  9990
2 62736  43.0034 340.2895 0001535 275.6367 313.7912 15.27596781  5867
STARLINK-32774          
1 62737U 25014C   26163.19632582  .00021104  00000+0  77382-3 0  9998
2 62737  43.0090 343.8989 0000242 266.2972  93.7852 15.27598045 77676
STARLINK-32802          
1 62738U 25014D   26163.18781908  .00021695  00000+0  79470-3 0  9990
2 62738  43.0180 340.3700 0000468 198.4145 161.6690 15.27616849 77711
STARLINK-32796          
1 62739U 25014E   26163.18524497  .00019149  00000+0  70331-3 0  9997
2 62739  43.0089 340.3541 0000311 190.2002 169.8843 15.27593153 77714
STARLINK-32805          
1 62740U 25014F   26162.19690820  .00020997  00000+0  77076-3 0  9999
2 62740  43.0034 346.7036 0001595 280.6569  79.4103 15.27563334 77557
STARLINK-32770          
1 62741U 25014G   26163.25003472 -.00014781  00000+0 -52853-3 0  9991
2 62741  43.0027 340.1572 0001448 261.7815  24.2603 15.27589077  5752
STARLINK-32775          
1 62742U 25014H   26163.20965246  .00029609  00000+0  10802-2 0  9993
2 62742  43.0030 340.5347 0002276 265.1517  94.9075 15.27608195 77713
STARLINK-32800          
1 62743U 25014J   26161.80745227  .00015279  00000+0  56339-3 0  9997
2 62743  43.0040 355.8515 0002505 272.6315  87.4250 15.27592106 77418
STARLINK-32758          
1 62744U 25014K   26163.20915279  .00019324  00000+0  70897-3 0  9990
2 62744  42.9922 343.9962 0003498 274.0139  86.0313 15.27619830 77679
STARLINK-32746          
1 62745U 25014L   26162.20058257  .00024111  00000+0  88213-3 0  9995
2 62745  42.9985 345.8587 0002752 277.0068  83.0470 15.27604290 77562
STARLINK-32780          
1 62746U 25014M   26162.19559466  .00019356  00000+0  71062-3 0  9991
2 62746  42.9978 346.6856 0002493 279.8236  80.2334 15.27599017 77559
