OBJECT_NAME,OBJECT_ID,EPOCH,MEAN_MOTION,ECCENTRICITY,INCLINATION,RA_OF_ASC_NODE,ARG_OF_PERICENTER,MEAN_ANOMALY,EPHEMERIS_TYPE,CLASSIFICATION_TYPE,NORAD_CAT_ID,ELEMENT_SET_NO,REV_AT_EPOCH,BSTAR,MEAN_MOTION_DOT,MEAN_MOTION_DDOT
LEMUR-2-ALISIA,2025-009DB,2026-06-12T04:59:49.133184,15.02701559,.00014119,97.6968,245.4119,190.1719,169.9478,0,U,62706,999,9941,.61122981E-3,.8103E-4,0
ICEYE-X44,2025-009DC,2026-06-12T04:51:53.090784,14.95989420,.00023152,97.7059,242.4074,121.8397,238.3049,0,U,62707,999,9919,.24259604E-3,.2663E-4,0
CENTAURI-7,2025-009DD,2026-06-12T04:25:20.340480,14.97776126,.0001474,97.7107,243.5211,114.7640,245.3736,0,U,62708,999,7671,.31874579E-3,.3684E-4,0
CONNECTA IOT-6,2025-009DE,2026-06-12T04:08:21.093504,14.94202879,.00027034,97.7028,241.6364,123.3006,236.8474,0,U,62709,999,7661,.12552943E-3,.1289E-4,0
FIREFLY-3,2025-009DF,2026-06-12T05:22:15.303936,14.92722048,.00039324,97.7060,241.4908,150.4973,209.6469,0,U,62710,999,7659,.14584424E-3,.145E-4,0
LEMUR-2-ROUNDTRIPPER,2025-009DG,2026-06-12T04:04:18.958368,15.03708826,.00048138,97.7255,245.8557,146.9647,213.1880,0,U,62711,999,7687,.68317054E-3,.9313E-4,0
LEMUR-2-MYNAMEISJEFF,2025-009DH,2026-06-12T05:37:53.378976,15.03722784,.00030177,97.7304,246.2986,170.0646,190.0640,0,U,62712,999,7688,.65985332E-3,.8995E-4,0
SATGUS,2025-009DJ,2026-06-12T04:44:47.394528,15.01139520,.00089259,97.6934,244.6229,136.1717,224.0217,0,U,62713,999,7681,.51473909E-3,.6542E-4,0
CENTAURI-8,2025-009DK,2026-06-12T05:05:31.423200,14.97729535,.00023279,97.7044,243.3889,142.9718,217.1665,0,U,62714,999,7673,.279086E-3,.3214E-4,0
CONNECTA IOT-7,2025-009DL,2026-06-11T17:53:56.396832,14.94167596,.00014798,97.7081,241.6071,148.0274,212.1036,0,U,62715,999,7653,.71776231E-4,.712E-5,0
PRSC-EO1,2025-012A,2026-06-12T07:30:17.817408,15.17709019,.00041751,97.4232,235.8675,273.5323,86.5434,0,U,62725,999,7745,.33443984E-3,.6679E-4,0
2025-012B,2025-012B,2026-06-12T06:23:35.060928,15.21168000,.00074186,97.4238,236.4030,297.2437,62.8042,0,U,62726,999,7750,.22386892E-3,.4922E-4,0
2025-012C,2025-012C,2026-06-12T07:23:01.843008,15.27404131,.00059626,97.4266,238.8420,281.8446,78.2124,0,U,62727,999,7764,.41922404E-3,.11183E-3,0
2025-013A,2025-013A,2026-06-12T06:47:49.632576,15.34928986,.00081507,97.6382,341.7653,311.0959,48.9579,0,U,62729,999,7720,.10131304E-2,.34387E-3,0
2025-013B,2025-013B,2026-06-12T05:51:38.714112,15.11288288,.00140285,97.6557,332.6193,32.5898,327.6195,0,U,62730,999,7658,.18620547E-3,.3075E-4,0
2025-013C,2025-013C,2026-06-12T05:31:05.146752,15.11256027,.00148855,97.6507,332.3116,35.3458,324.8756,0,U,62731,999,7658,.20504969E-3,.3391E-4,0
2025-013D,2025-013D,2026-06-12T06:02:53.754720,15.11307115,.00097033,97.6543,332.6591,53.9945,306.2183,0,U,62732,999,7653,.18967034E-3,.3131E-4,0
2025-013E,2025-013E,2026-06-12T06:03:50.790816,15.11050961,.00094542,97.6558,332.6044,43.1117,317.0851,0,U,62733,999,7647,.18520916E-3,.3034E-4,0
STARLINK-32806,2025-014A,2026-06-10T18:56:22.536672,15.27625433,.00009676,43.0015,348.7992,110.6545,249.4411,0,U,62735,999,7749,.88132646E-3,.24103E-3,0
STARLINK-32329,2025-014B,2026-06-12T06:00:02.999808,15.27596781,.00015357,43.0034,340.2895,275.6367,313.7912,0,U,62736,999,586,-.41064586E-3,-.11551E-3,0
STARLINK-32774,2025-014C,2026-06-12T04:42:42.550848,15.27598045,.00002429,43.0090,343.8989,266.2972,93.7852,0,U,62737,999,7767,.77382084E-3,.21104E-3,0
STARLINK-32802,2025-014D,2026-06-12T04:30:27.568512,15.27616849,.0000468,43.0180,340.3700,198.4145,161.6690,0,U,62738,999,7771,.79469999E-3,.21695E-3,0
STARLINK-32796,2025-014E,2026-06-12T04:26:45.165408,15.27593153,.0000311,43.0089,340.3541,190.2002,169.8843,0,U,62739,999,7771,.7033105E-3,.19149E-3,0
STARLINK-32805,2025-014F,2026-06-11T04:43:32.868480,15.27563334,.00015957,43.0034,346.7036,280.6569,79.4103,0,U,62740,999,7755,.77076406E-3,.20997E-3,0
STARLINK-32770,2025-014G,2026-06-12T06:00:02.999808,15.27589077,.00014484,43.0027,340.1572,261.7815,24.2603,0,U,62741,999,575,-.52852601E-3,-.14781E-3,0
STARLINK-32775,2025-014H,2026-06-12T05:01:53.972544,15.27608195,.00022768,43.0030,340.5347,265.1517,94.9075,0,U,62742,999,7771,.10802161E-2,.29609E-3,0
STARLINK-32800,2025-014J,2026-06-10T19:22:43.876128,15.27592106,.00025051,43.0040,355.8515,272.6315,87.4250,0,U,62743,999,7741,.56339176E-3,.15279E-3,0
STARLINK-32758,2025-014K,2026-06-12T05:01:10.801056,15.27619830,.00034987,42.9922,343.9962,274.0139,86.0313,0,U,62744,999,7767,.70896746E-3,.19324E-3,0
STARLINK-32746,2025-014L,2026-06-11T04:48:50.334048,15.27604290,.00027524,42.9985,345.8587,277.0068,83.0470,0,U,62745,999,7756,.88213172E-3,.24111E-3,0
STARLINK-32780,2025-014M,2026-06-11T04:41:39.378624,15.27599017,.00024932,42.9978,346.6856,279.8236,80.2334,0,U,62746,999,7755,.71062273E-3,.19356E-3,0
